OBJECT_NAME,OBJECT_ID,EPOCH,MEAN_MOTION,ECCENTRICITY,INCLINATION,RA_OF_ASC_NODE,ARG_OF_PERICENTER,MEAN_ANOMALY,EPHEMERIS_TYPE,CLASSIFICATION_TYPE,NORAD_CAT_ID,ELEMENT_SET_NO,REV_AT_EPOCH,BSTAR,MEAN_MOTION_DOT,MEAN_MOTION_DDOT
COSMOS 2509 (RODNIK-S 15),2015-050C,2026-06-26T18:52:55.396128,12.42883726,.0015445,82.4885,72.2982,23.2943,336.8833,0,U,40922,999,48807,-.16492E-3,-.13E-6,0
LINGQIAO VIDEO A,2015-057B,2026-06-26T18:37:06.051936,14.77404753,.001528,97.6621,172.1046,236.0665,123.9094,0,U,40959,999,57682,.11244E-3,.753E-5,0
LINGQIAO VIDEO B,2015-057C,2026-06-26T18:02:31.047936,14.77510957,.0015451,97.6587,173.2426,236.1222,123.8519,0,U,40960,999,57686,.13586E-3,.922E-5,0
JILIN-1,2015-057D,2026-06-26T16:38:22.848864,14.78174309,.0015659,97.6509,176.5880,229.0069,130.9789,0,U,40961,999,57701,.11208E-3,.765E-5,0
FOX-1A (AO-85),2015-058D,2026-06-26T14:36:36.038016,14.91006682,.0131014,64.7749,249.7037,52.9293,308.3713,0,U,40967,999,11497,.19593E-3,.2109E-4,0
SINOD-D 1,2015-058E,2026-06-26T10:30:11.270880,14.95955298,.0119663,64.7739,229.9429,49.4285,311.7170,0,U,40968,999,11804,.26324E-3,.3234E-4,0
ELEKTRO-L 2,2015-074A,2026-06-25T22:47:48.794784,1.00271163,.00007276,6.7170,70.4166,286.6211,244.4527,0,U,41105,999,3859,0,-.113E-5,0
DAMPE,2015-078A,2026-06-26T17:05:22.671744,15.30808871,.0013407,97.4561,183.2258,47.8135,312.4241,0,U,41173,999,58600,.52398E-4,.1485E-4,0
ORBCOMM FM110,2015-081D,2026-06-26T16:36:20.232576,14.58893336,.0002613,47.0031,316.5018,132.8455,227.2650,0,U,41182,999,55901,.16101E-3,.59E-5,0
ORBCOMM FM112,2015-081F,2026-06-26T12:36:09.091008,14.58913881,.0004102,46.9976,226.0906,254.9031,105.1401,0,U,41184,999,56031,.10883E-3,.343E-5,0
ORBCOMM FM113,2015-081G,2026-06-26T10:24:18.606816,14.58866013,.0002586,46.9993,226.9043,256.4243,103.6355,0,U,41185,999,56028,.95347E-4,.279E-5,0
ORBCOMM FM108,2015-081J,2026-06-26T14:25:52.824576,14.58884724,.0003172,47.0041,137.6869,256.8834,103.1698,0,U,41187,999,56145,.1529E-3,.552E-5,0
ORBCOMM FM117,2015-081K,2026-06-26T13:36:18.639360,14.58871605,.0003648,47.0000,136.4805,260.3036,99.7438,0,U,41188,999,56149,.9733E-4,.289E-5,0
ORBCOMM FM116,2015-081L,2026-06-26T09:50:43.924704,14.58893255,.0000687,47.0009,227.0123,156.2927,203.7991,0,U,41189,999,56028,.11934E-3,.393E-5,0
HORYU-4,2016-012D,2026-06-26T14:25:56.670240,16.07657648,.0008771,30.9826,9.3933,328.5167,31.4973,0,U,41340,999,57232,.11416E-2,.981345E-2,.51298E-3
ZIYUAN 3-02 (ZY 3-02),2016-033A,2026-06-26T14:18:05.180256,15.21264400,.00124782,97.3839,253.1891,254.3189,105.6671,0,U,41556,999,55941,.24576605E-3,.5434E-4,0
CARTOSAT-2C,2016-040A,2026-06-26T17:49:28.937856,15.19264713,.0010541,97.4484,237.5892,101.9957,258.2459,0,U,41599,999,55516,.25227E-3,.5258E-4,0
LAPAN-A3,2016-040E,2026-06-26T17:17:16.920672,15.33163675,.0009663,97.1487,173.5528,352.5383,7.5714,0,U,41603,999,55627,.12386E-3,.3898E-4,0
GAOFEN-3,2016-049A,2026-06-26T17:27:37.674432,14.42216023,.0001589,98.4013,185.3694,97.0306,263.1064,0,U,41727,999,52002,-.62282E-5,-.64E-6,0
CAS-2T & KS-1Q,2016-066G,2026-06-26T10:51:06.598944,14.44722998,.0342902,98.3822,253.0826,101.4662,262.5241,0,U,41847,999,50613,.2333609E-3,.162E-4,0
YUNHAI-1 01,2016-068A,2026-06-26T14:18:21.077856,14.32429128,.00056328,98.5845,188.5145,32.9501,327.2033,0,U,41857,999,50317,.14841536E-3,.358E-5,0
RESOURCESAT-2A,2016-074A,2026-06-26T15:25:34.114944,14.21619414,.00032312,98.7527,251.0702,65.6582,294.4933,0,U,41877,999,49564,.9642779E-4,.167E-5,0
TANSAT,2016-081A,2026-06-26T15:18:30.434400,14.59957883,.00191659,98.5364,178.1749,281.4326,78.4721,0,U,41898,999,50600,.87089694E-4,.368E-5,0
JILIN-1 03,2017-002B,2026-06-26T13:36:44.799552,15.41793160,.00076749,97.1944,184.5199,128.2218,231.9722,0,U,41914,999,52330,.3106117E-3,.13084E-3,0
